ONEWEB-0560             
1 55145U 23004F   25116.89313600  .00000016  00000+0  78080-5 0  9998
2 55145  87.9136  58.2292 0001643  78.1860 281.9457 13.18688646114843
ONEWEB-0565             
1 55146U 23004G   25116.88682159 -.00000037  00000+0 -12575-3 0  9996
2 55146  87.9131  58.2932 0001724  96.8928 263.2400 13.18687396114833
ONEWEB-0567             
1 55147U 23004H   25116.88049554  .00000052  00000+0  98127-4 0  9996
2 55147  87.9131  58.2500 0001563  88.1521 271.9791 13.18687288114838
ONEWEB-0569             
1 55148U 23004J   25116.84992477  .00000284  00000+0  74338-3 0  9998
2 55148  87.8990  42.9390 0000881  83.5637 276.5592 13.13469226115529
ONEWEB-0570             
1 55149U 23004K   25116.86785118  .00000042  00000+0  74001-4 0  9993
2 55149  87.9132  58.2556 0002312  96.6789 263.4606 13.18687234114826
ONEWEB-0571             
1 55150U 23004L   25116.86149380 -.00000023  00000+0 -92153-4 0  9999
2 55150  87.9129  58.2647 0001462 113.2187 246.9100 13.18683686114831
ONEWEB-0572             
1 55151U 23004M   25116.93351674  .00000072  00000+0  15273-3 0  9998
2 55151  87.9029  88.7561 0002031  92.2881 267.8483 13.17647979112663
ONEWEB-0573             
1 55152U 23004N   25116.85520229  .00000073  00000+0  15274-3 0  9996
2 55152  87.9130  58.2727 0001837 108.7240 251.4091 13.18685414114829
